STARLINK-1260           
1 45404U 20019AW  26068.43645685  .00003834  00000+0  14152-3 0  9995
2 45404  53.1614 130.4178 0001820  93.3089 266.8120 15.30197736329939
2025-313BE              
1 67482U 25313BE  26068.69721505  .00077178  00000+0  26504-2 0  9996
2 67482  97.3989 145.3568 0007208 335.3714  24.7181 15.29801687  7972
